[{"OBJECT_NAME":"STARLINK-3541","OBJECT_ID":"2022-022C","EPOCH":"2026-03-09T03:43:39.090720","MEAN_MOTION":15.14066338,"ECCENTRICITY":0.00011202,"INCLINATION":53.2166,"RA_OF_ASC_NODE":19.7963,"ARG_OF_PERICENTER":55.171,"MEAN_ANOMALY":304.9389,"EPHEMERIS_TYPE":0,"CLASSIFICATION_TYPE":"U","NORAD_CAT_ID":51854,"ELEMENT_SET_NO":999,"REV_AT_EPOCH":22296,"BSTAR":0.0020482692,"MEAN_MOTION_DOT":0.00037583,"MEAN_MOTION_DDOT":0},{"OBJECT_NAME":"TITAN 3C TRANSTAGE DEB","OBJECT_ID":"1965-082GW","EPOCH":"2026-03-09T12:42:20.172960","MEAN_MOTION":15.14963153,"ECCENTRICITY":0.00030531,"INCLINATION":31.8551,"RA_OF_ASC_NODE":209.3641,"ARG_OF_PERICENTER":343.4922,"MEAN_ANOMALY":16.5634,"EPHEMERIS_TYPE":0,"CLASSIFICATION_TYPE":"U","NORAD_CAT_ID":1961,"ELEMENT_SET_NO":999,"REV_AT_EPOCH":22902,"BSTAR":0.00048671967,"MEAN_MOTION_DOT":9.381e-5,"MEAN_MOTION_DDOT":0}]
